start=new Date('2023-03-06T00:00:00.000Z').valueOf();
sats=[{"REV_AT_EPOCH":"6271","ELEMENT_SET_NO":"999","TIME_SYSTEM":"UTC","TLE_LINE2":"2 51116  53.2160 190.0851 0001226 101.8556 258.2574 15.08842380 62712","OBJECT_TYPE":"PAYLOAD","ARG_OF_PERICENTER":"101.8556","BSTAR":"0.00160240000000","MEAN_MOTION_DDOT":"0.0000000000000","CLASSIFICATION_TYPE":"U","SITE":"AFETR","MEAN_ANOMALY":"258.2574","PERIOD":"95.437","EPHEMERIS_TYPE":"0","RCS_SIZE":"LARGE","OBJECT_NAME":"STARLINK-3243","COUNTRY_CODE":"US","MEAN_MOTION":"15.08842380","LAUNCH_DATE":"2022-01-19","RA_OF_ASC_NODE":"190.0851","CENTER_NAME":"EARTH","NORAD_CAT_ID":"51116","GP_ID":"227549294","INCLINATION":"53.2160","PERIAPSIS":"538.890","TLE_LINE1":"1 51116U 22005N   23064.05033248  .00025308  00000-0  16024-2 0  9996","ECCENTRICITY":"0.00012260","OBJECT_ID":"2022-005N","FILE":"3851939","APOAPSIS":"540.586","EPOCH":"2023-03-05T01:12:28.726272","REF_FRAME":"TEME","MEAN_MOTION_DOT":"0.00025308","DECAY_DATE":null,"SEMIMAJOR_AXIS":"6917.873","MEAN_ELEMENT_THEORY":"SGP4"},{"MEAN_MOTION_DDOT":"0.0000000000000","CLASSIFICATION_TYPE":"U","SITE":"AFETR","MEAN_ANOMALY":"262.3078","PERIOD":"95.437","EPHEMERIS_TYPE":"0","RCS_SIZE":"LARGE","REV_AT_EPOCH":"6276","ELEMENT_SET_NO":"999","TLE_LINE2":"2 51117  53.2177 188.7280 0001434  97.8077 262.3078 15.08844501 62761","OBJECT_TYPE":"PAYLOAD","TIME_SYSTEM":"UTC","ARG_OF_PERICENTER":"97.8077","BSTAR":"0.00206710000000","TLE_LINE1":"1 51117U 22005P   23064.35211138  .00032767  00000-0  20671-2 0  9996","ECCENTRICITY":"0.00014340","OBJECT_ID":"2022-005P","FILE":"3851939","APOAPSIS":"540.724","EPOCH":"2023-03-05T08:27:02.423232","REF_FRAME":"TEME","MEAN_MOTION_DOT":"0.00032767","DECAY_DATE":null,"MEAN_ELEMENT_THEORY":"SGP4","SEMIMAJOR_AXIS":"6917.867","OBJECT_NAME":"STARLINK-3391","COUNTRY_CODE":"US","MEAN_MOTION":"15.08844501","LAUNCH_DATE":"2022-01-19","RA_OF_ASC_NODE":"188.7280","CENTER_NAME":"EARTH","NORAD_CAT_ID":"51117","GP_ID":"227549048","INCLINATION":"53.2177","PERIAPSIS":"538.740"},{"RCS_SIZE":"LARGE","MEAN_ANOMALY":"232.8382","PERIOD":"95.435","EPHEMERIS_TYPE":"0","CLASSIFICATION_TYPE":"U","SITE":"AFETR","MEAN_MOTION_DDOT":"0.0000000000000","BSTAR":"0.00118830000000","REV_AT_EPOCH":"6283","ELEMENT_SET_NO":"999","ARG_OF_PERICENTER":"127.2702","TLE_LINE2":"2 51118  53.2155 186.5629 0001004 127.2702 232.8382 15.08873029 62832","OBJECT_TYPE":"PAYLOAD","TIME_SYSTEM":"UTC","DECAY_DATE":null,"MEAN_ELEMENT_THEORY":"SGP4","SEMIMAJOR_AXIS":"6917.779","MEAN_MOTION_DOT":"0.00018691","OBJECT_ID":"2022-005Q","FILE":"3852256","APOAPSIS":"540.339","EPOCH":"2023-03-05T20:01:11.965728","REF_FRAME":"TEME","ECCENTRICITY":"0.00010040","TLE_LINE1":"1 51118U 22005Q   23064.83416627  .00018691  00000-0  11883-2 0  9995","GP_ID":"227583705","INCLINATION":"53.2155","PERIAPSIS":"538.950","CENTER_NAME":"EARTH","NORAD_CAT_ID":"51118","COUNTRY_CODE":"US","MEAN_MOTION":"15.08873029","LAUNCH_DATE":"2022-01-19","RA_OF_ASC_NODE":"186.5629","OBJECT_NAME":"STARLINK-3394"},{"MEAN_MOTION_DOT":"0.00033697","DECAY_DATE":null,"MEAN_ELEMENT_THEORY":"SGP4","SEMIMAJOR_AXIS":"6917.877","TLE_LINE1":"1 51119U 22005R   23064.34842002  .00033697  00000-0  21251-2 0  9995","ECCENTRICITY":"0.00021820","FILE":"3851609","OBJECT_ID":"2022-005R","EPOCH":"2023-03-05T08:21:43.489728","REF_FRAME":"TEME","APOAPSIS":"541.252","CENTER_NAME":"EARTH","NORAD_CAT_ID":"51119","INCLINATION":"53.2145","GP_ID":"227518645","PERIAPSIS":"538.233","OBJECT_NAME":"STARLINK-3390","LAUNCH_DATE":"2022-01-19","COUNTRY_CODE":"US","MEAN_MOTION":"15.08841029","RA_OF_ASC_NODE":"188.7452","MEAN_ANOMALY":"273.8662","PERIOD":"95.437","EPHEMERIS_TYPE":"0","RCS_SIZE":"LARGE","MEAN_MOTION_DDOT":"0.0000000000000","SITE":"AFETR","CLASSIFICATION_TYPE":"U","BSTAR":"0.00212510000000","REV_AT_EPOCH":"6387","TIME_SYSTEM":"UTC","TLE_LINE2":"2 51119  53.2145 188.7452 0002182  86.2579 273.8662 15.08841029 63870","OBJECT_TYPE":"PAYLOAD","ARG_OF_PERICENTER":"86.2579","ELEMENT_SET_NO":"999"},{"CENTER_NAME":"EARTH","NORAD_CAT_ID":"51120","GP_ID":"227548795","INCLINATION":"53.2147","PERIAPSIS":"538.718","OBJECT_NAME":"STARLINK-3398","MEAN_MOTION":"15.08828931","COUNTRY_CODE":"US","LAUNCH_DATE":"2022-01-19","RA_OF_ASC_NODE":"188.7808","MEAN_MOTION_DOT":"-0.00001339","DECAY_DATE":null,"MEAN_ELEMENT_THEORY":"SGP4","SEMIMAJOR_AXIS":"6917.914","TLE_LINE1":"1 51120U 22005S   23064.34105778 -.00001339  00000-0 -66075-4 0  9994","ECCENTRICITY":"0.00015340","OBJECT_ID":"2022-005S","FILE":"3851939","APOAPSIS":"540.840","EPOCH":"2023-03-05T08:11:07.392192","REF_FRAME":"TEME","BSTAR":"-0.00006607500000","REV_AT_EPOCH":"6276","ELEMENT_SET_NO":"999","OBJECT_TYPE":"PAYLOAD","TLE_LINE2":"2 51120  53.2147 188.7808 0001534  76.9732 283.1432 15.08828931 62769","ARG_OF_PERICENTER":"76.9732","TIME_SYSTEM":"UTC","MEAN_ANOMALY":"283.1432","PERIOD":"95.438","EPHEMERIS_TYPE":"0","RCS_SIZE":"LARGE","MEAN_MOTION_DDOT":"0.0000000000000","CLASSIFICATION_TYPE":"U","SITE":"AFETR"},{"TIME_SYSTEM":"UTC","TLE_LINE2":"2 51121  53.2171 186.3326 0001593  81.6217 278.4956 15.08877070 62847","OBJECT_TYPE":"PAYLOAD","ARG_OF_PERICENTER":"81.6217","ELEMENT_SET_NO":"999","REV_AT_EPOCH":"6284","BSTAR":"0.00271630000000","MEAN_MOTION_DDOT":"0.0000000000000","SITE":"AFETR","CLASSIFICATION_TYPE":"U","PERIOD":"95.435","EPHEMERIS_TYPE":"0","MEAN_ANOMALY":"278.4956","RCS_SIZE":"LARGE","OBJECT_NAME":"STARLINK-3399","RA_OF_ASC_NODE":"186.3326","LAUNCH_DATE":"2022-01-19","COUNTRY_CODE":"US","MEAN_MOTION":"15.08877070","NORAD_CAT_ID":"51121","CENTER_NAME":"EARTH","PERIAPSIS":"538.530","INCLINATION":"53.2171","GP_ID":"227583468","ECCENTRICITY":"0.00015930","TLE_LINE1":"1 51121U 22005T   23064.88569048  .00043252  00000-0  27163-2 0  9999","EPOCH":"2023-03-05T21:15:23.657472","REF_FRAME":"TEME","APOAPSIS":"540.734","FILE":"3852256","OBJECT_ID":"2022-005T","MEAN_MOTION_DOT":"0.00043252","SEMIMAJOR_AXIS":"6917.767","MEAN_ELEMENT_THEORY":"SGP4","DECAY_DATE":null},{"ECCENTRICITY":"0.00011650","TLE_LINE1":"1 51122U 22005U   23064.07977128  .00000297  00000-0  36721-4 0  9997","EPOCH":"2023-03-05T01:54:52.238592","REF_FRAME":"TEME","APOAPSIS":"540.547","FILE":"3851939","OBJECT_ID":"2022-005U","MEAN_MOTION_DOT":"0.00000297","SEMIMAJOR_AXIS":"6917.876","MEAN_ELEMENT_THEORY":"SGP4","DECAY_DATE":null,"OBJECT_NAME":"STARLINK-3373","RA_OF_ASC_NODE":"189.9519","LAUNCH_DATE":"2022-01-19","COUNTRY_CODE":"US","MEAN_MOTION":"15.08841389","NORAD_CAT_ID":"51122","CENTER_NAME":"EARTH","PERIAPSIS":"538.935","INCLINATION":"53.2146","GP_ID":"227547802","MEAN_MOTION_DDOT":"0.0000000000000","SITE":"AFETR","CLASSIFICATION_TYPE":"U","EPHEMERIS_TYPE":"0","PERIOD":"95.437","MEAN_ANOMALY":"265.3785","RCS_SIZE":"LARGE","OBJECT_TYPE":"PAYLOAD","TLE_LINE2":"2 51122  53.2146 189.9519 0001165  94.7340 265.3785 15.08841389 62726","ARG_OF_PERICENTER":"94.7340","TIME_SYSTEM":"UTC","ELEMENT_SET_NO":"999","REV_AT_EPOCH":"6272","BSTAR":"0.00003672100000"},{"EPOCH":"2023-03-05T08:05:49.247520","REF_FRAME":"TEME","APOAPSIS":"540.865","FILE":"3851939","OBJECT_ID":"2022-005V","TLE_LINE1":"1 51123U 22005V   23064.33737555  .00021194  00000-0  13460-2 0  9997","ECCENTRICITY":"0.00015830","MEAN_ELEMENT_THEORY":"SGP4","SEMIMAJOR_AXIS":"6917.905","DECAY_DATE":null,"MEAN_MOTION_DOT":"0.00021194","RA_OF_ASC_NODE":"188.7922","LAUNCH_DATE":"2022-01-19","COUNTRY_CODE":"US","MEAN_MOTION":"15.08832092","OBJECT_NAME":"STARLINK-3392","PERIAPSIS":"538.674","INCLINATION":"53.2149","GP_ID":"227548052","NORAD_CAT_ID":"51123","CENTER_NAME":"EARTH","SITE":"AFETR","CLASSIFICATION_TYPE":"U","MEAN_MOTION_DDOT":"0.0000000000000","RCS_SIZE":"LARGE","EPHEMERIS_TYPE":"0","PERIOD":"95.438","MEAN_ANOMALY":"246.7413","ARG_OF_PERICENTER":"113.3745","TLE_LINE2":"2 51123  53.2149 188.7922 0001583 113.3745 246.7413 15.08832092 62762","OBJECT_TYPE":"PAYLOAD","TIME_SYSTEM":"UTC","ELEMENT_SET_NO":"999","REV_AT_EPOCH":"6276","BSTAR":"0.00134600000000"},{"DECAY_DATE":null,"MEAN_ELEMENT_THEORY":"SGP4","SEMIMAJOR_AXIS":"6917.902","MEAN_MOTION_DOT":"-0.00001500","OBJECT_ID":"2022-005W","FILE":"3851939","APOAPSIS":"540.678","EPOCH":"2023-03-05T07:32:42.373248","REF_FRAME":"TEME","ECCENTRICITY":"0.00013170","TLE_LINE1":"1 51124U 22005W   23064.31437932 -.00001500  00000-0 -76181-4 0  9994","GP_ID":"227549295","INCLINATION":"53.2149","PERIAPSIS":"538.856","CENTER_NAME":"EARTH","NORAD_CAT_ID":"51124","COUNTRY_CODE":"US","MEAN_MOTION":"15.08833038","LAUNCH_DATE":"2022-01-19","RA_OF_ASC_NODE":"198.8985","OBJECT_NAME":"STARLINK-3389","RCS_SIZE":"LARGE","MEAN_ANOMALY":"268.7939","PERIOD":"95.438","EPHEMERIS_TYPE":"0","CLASSIFICATION_TYPE":"U","SITE":"AFETR","MEAN_MOTION_DDOT":"0.0000000000000","BSTAR":"-0.00007618100000","REV_AT_EPOCH":"6262","ELEMENT_SET_NO":"999","ARG_OF_PERICENTER":"91.3204","TLE_LINE2":"2 51124  53.2149 198.8985 0001317  91.3204 268.7939 15.08833038 62627","OBJECT_TYPE":"PAYLOAD","TIME_SYSTEM":"UTC"},{"BSTAR":"0.00075915000000","ELEMENT_SET_NO":"999","TLE_LINE2":"2 51125  53.2138 198.6528 0002038  94.7365 265.3860 15.08852314 62616","OBJECT_TYPE":"PAYLOAD","ARG_OF_PERICENTER":"94.7365","TIME_SYSTEM":"UTC","REV_AT_EPOCH":"6261","EPHEMERIS_TYPE":"0","PERIOD":"95.437","MEAN_ANOMALY":"265.3860","RCS_SIZE":"LARGE","MEAN_MOTION_DDOT":"0.0000000000000","CLASSIFICATION_TYPE":"U","SITE":"AFETR","NORAD_CAT_ID":"51125","CENTER_NAME":"EARTH","PERIAPSIS":"538.298","GP_ID":"227549049","INCLINATION":"53.2138","OBJECT_NAME":"STARLINK-3387","RA_OF_ASC_NODE":"198.6528","MEAN_MOTION":"15.08852314","COUNTRY_CODE":"US","LAUNCH_DATE":"2022-01-19","MEAN_MOTION_DOT":"0.00011819","SEMIMAJOR_AXIS":"6917.843","MEAN_ELEMENT_THEORY":"SGP4","DECAY_DATE":null,"ECCENTRICITY":"0.00020380","TLE_LINE1":"1 51125U 22005X   23064.37053426  .00011819  00000-0  75915-3 0  9998","APOAPSIS":"541.118","EPOCH":"2023-03-05T08:53:34.160064","REF_FRAME":"TEME","OBJECT_ID":"2022-005X","FILE":"3851939"}];
